satname,norad_id,inclination_deg,eccentricity,mean_motion_rev_per_day,perigee_km,apogee_km,l1,l2
STARLINK-1263,45405,53.1599,0.0001363,15.30181783,474.3353433364555,476.2035819381708,1 45405U 20019AX  26072.27846746  .00002362  00000+0  91913-4 0  9990,2 45405  53.1599 112.6008 0001363  95.0195 265.0961 15.30181783330521
STARLINK-1265,45406,53.1593,0.000123,15.30206981,474.35126575016693,476.0371852316375,1 45406U 20019AY  26072.48914733  .00002716  00000+0  10378-3 0  9994,2 45406  53.1593 111.6990 0001230  90.5656 269.5486 15.30206981330552
STARLINK-1278,45408,53.045,0.0002628,15.56791976,395.16808110172224,398.7290660792014,1 45408U 20019BA  26072.50587688  .00119083  00000+0  16151-2 0  9994,2 45408  53.0450 111.9084 0002628  50.9725 309.1520 15.56791976330552
STARLINK-1296,45412,53.1599,0.0001554,15.30193075,474.17073217428697,476.30076042383644,1 45412U 20019BE  26072.48284680  .00006840  00000+0  24289-3 0  9990,2 45412  53.1599 111.6298 0001554  80.9893 279.1284 15.30193075330553
STARLINK-1298,45413,53.0334,0.0004495,15.99830007,271.8994107307208,277.88048195548254,1 45413U 20019BF  26072.66667824  .00361511  66361-4  70010-3 0  9995,2 45413  53.0334  33.3616 0004495  46.6367 255.6763 15.99830007  6049
STARLINK-1309,45414,53.0674,0.0006363,15.55586948,396.133767485283,404.76019345883196,1 45414U 20019BG  26072.48371840  .00120733  00000+0  17107-2 0  9995,2 45414  53.0674 105.2681 0006363  43.8601 316.2914 15.55586948330624
STARLINK-1316,45415,53.1607,0.0001207,15.30204364,474.3748413108606,476.0292373549555,1 45415U 20019BH  26072.33218660  .00000397  00000+0  25520-4 0  9993,2 45415  53.1607 112.3849 0001207 110.0232 250.0899 15.30204364330557
STARLINK-1286,45417,53.0484,0.0003344,15.51159686,411.067903815876,415.6100429468743,1 45417U 20019BK  26072.27909198  .00032410  00000+0  55108-3 0  9996,2 45417  53.0484 113.4707 0003344  67.8699 292.2664 15.51159686330788
STARLINK-1308,45419,53.0541,0.0003099,15.51302982,410.81619280167615,415.02529038991634,1 45419U 20019BM  26072.16213917  .00094291  00000+0  15681-2 0  9999,2 45419  53.0541 135.4224 0003099  27.9066 332.2108 15.51302982330219
STARLINK-1329,45531,53.0504,5.14e-05,15.56997956,396.0028205982453,396.6992379676558,1 45531U 20025A   26072.36532840  .00120506  00000+0  16217-2 0  9997,2 45531  53.0504  63.5371 0000514  35.8224 324.2821 15.56997956326023
STARLINK-1338,45532,53.0492,0.0004954,15.555546,397.1827975601964,403.8991116776324,1 45532U 20025B   26072.36539061  .00103573  00000+0  14739-2 0  9992,2 45532  53.0492  66.9537 0004954  22.2493 337.8731 15.55554600325978
STARLINK-1350,45535,53.0741,0.0002203,15.36231569,455.75900148675464,458.7706795376844,1 45535U 20025E   26072.23895450  .00014728  00000+0  42099-3 0  9992,2 45535  53.0741  16.4745 0002203  82.7909 277.3344 15.36231569326702
STARLINK-1362,45538,53.1616,9.04e-05,15.29777276,475.8578805720881,477.09719488050814,1 45538U 20025H   26072.31345837 -.00175115  00000+0 -61198-2 0  9993,2 45538  53.1616  84.1650 0000904 110.9276 249.1821 15.29777276325732
STARLINK-1368,45540,53.1586,0.0001351,15.30207074,474.26806280074106,476.1198328228411,1 45540U 20025K   26072.32312798  .00002978  00000+0  11262-3 0  9999,2 45540  53.1586  84.4513 0001351  94.7390 265.3765 15.30207074325727
STARLINK-1371,45542,53.0501,0.0001885,15.47729307,422.0882467587817,424.65241502252775,1 45542U 20025M   26072.42940537  .00086333  00000+0  16305-2 0  9999,2 45542  53.0501  71.5501 0001885  21.3718 338.7367 15.47729307325911
STARLINK-1372,45543,53.1599,0.0001278,15.30204993,474.3243047726446,476.0760177510638,1 45543U 20025N   26072.43053317  .00002560  00000+0  98524-4 0  9997,2 45543  53.1599  83.6470 0001278  92.3940 267.7207 15.30204993324846
STARLINK-1373,45544,53.0498,0.0004831,15.51481458,409.1194131225311,415.6804298960933,1 45544U 20025P   26072.36965919  .00095072  00000+0  15705-2 0  9998,2 45544  53.0498  71.2816 0004831  25.6571 334.4677 15.51481458325916
STARLINK-1327,45555,53.0473,0.0006621,15.54809902,398.21568142418346,407.1948727675144,1 45555U 20025AA  26072.18926660  .00112371  00000+0  16404-2 0  9999,2 45555  53.0473  49.7285 0006621  73.8597 286.3141 15.54809902326196
STARLINK-1356,45564,53.0517,0.0005907,15.45467639,425.98278488860433,434.0259230842048,1 45564U 20025AK  26072.22401511  .00087478  00000+0  17848-2 0  9999,2 45564  53.0517  57.0217 0005907  47.6809 312.4696 15.45467639326095
STARLINK-1357,45565,53.0526,0.0004292,15.56419497,395.12113253699863,400.9377938289945,1 45565U 20025AL  26072.24757839  .00108485  00000+0  14942-2 0  9993,2 45565  53.0526  20.7897 0004292 113.1186 247.0278 15.56419497326618
STARLINK-1361,45567,53.0503,0.0007638,15.48393887,416.23052160804036,426.61753103184765,1 45567U 20025AN  26072.49866063  .00113475  00000+0  20825-2 0  9994,2 45567  53.0503  55.6861 0007638  48.3877 311.7784 15.48393887326140
STARLINK-1363,45568,53.0417,0.0007895,15.77693365,331.67622079235116,342.27938706775603,1 45568U 20025AP  26072.66667824  .00166157  00000+0  95594-3 0  9999,2 45568  53.0417  17.8396 0007895  74.4136 156.8522 15.77693365  6005
STARLINK-1366,45569,53.0429,0.0008087,15.76762053,334.1890734764547,345.05437643820096,1 45569U 20025AQ  26072.66667824  .00168633  00000+0  10107-2 0  9997,2 45569  53.0429  18.6447 0008087  73.8221  57.7463 15.76762053  5931
STARLINK-1376,45570,53.1597,0.0001242,15.30259035,474.1876427820034,475.88997165251567,1 45570U 20025AR  26072.66667824  .00023310  00000+0  79522-3 0  9998,2 45570  53.1597  59.3356 0001242  92.8910  62.1059 15.30259035  5889
STARLINK-1320,45572,53.0492,0.0006913,15.69250164,356.38415125319716,365.70174144702014,1 45572U 20025AT  26071.99157484  .00080840  00000+0  67757-3 0  9999,2 45572  53.0492 329.4285 0006913  66.4810 293.6932 15.69250164327325
STARLINK-1321,45573,53.0497,0.0005053,15.49071241,416.0069271264638,422.87656020481245,1 45573U 20025AU  26072.30768606  .00097601  00000+0  17549-2 0  9996,2 45573  53.0497  41.1617 0005053  64.1934 295.9594 15.49071241326024
STARLINK-1331,45578,53.0532,0.0005185,15.49027048,416.046419214812,423.09564244278135,1 45578U 20025AZ  26072.57343175  .00104155  00000+0  18735-2 0  9991,2 45578  53.0532  46.5673 0005185  98.7674 261.3921 15.49027048326285
STARLINK-1333,45580,53.16,0.0001158,15.30196882,474.43075997339565,476.01799846882386,1 45580U 20025BB  26072.35099180  .00002821  00000+0  10735-3 0  9994,2 45580  53.1600  60.8033 0001158  72.3026 287.8101 15.30196882326061
STARLINK-1335,45581,53.1589,0.0001288,15.29368929,476.8145897462555,478.58065274468754,1 45581U 20025BC  26072.36264614 -.00000237  00000+0  41357-5 0  9998,2 45581  53.1589  58.0127 0001288  83.1895 276.9251 15.29368929326098
STARLINK-1337,45582,53.0535,0.0005178,15.58610453,388.1723428439791,395.1831630021061,1 45582U 20025BD  26072.59691935  .00078011  00000+0  99538-3 0  9990,2 45582  53.0535  42.7732 0005178  92.9658 267.1947 15.58610453326322
STARLINK-1347,45586,53.0452,0.0005643,15.55022856,398.2601106662123,405.91227055913714,1 45586U 20025BH  26072.66667824  .00152473  00000+0  21954-2 0  9993,2 45586  53.0452  10.2723 0005643  79.1733 273.3257 15.55022856  5948
STARLINK-1364,45589,53.0511,0.0008016,15.5027106,410.48787858024025,421.38013321689596,1 45589U 20025BL  26072.29939053  .00084195  00000+0  14538-2 0  9996,2 45589  53.0511  45.8880 0008016  77.0556 283.1347 15.50271060326259
STARLINK-1365,45590,53.0522,0.0004187,15.45959586,425.7100131060397,431.40994115468857,1 45590U 20025BM  26072.28966378  .00090419  00000+0  18135-2 0  9990,2 45590  53.0522  76.3805 0004187  51.8104 308.3279 15.45959586325841
STARLINK-1443,45660,53.14,0.00033,15.25438889,487.2015409152118,491.73416011655263,1 45660U 20035D   26072.25338148  .00010330  00000+0  41601-3 0  9993,2 45660  53.1400  48.4704 0003300  70.3287 289.8068 15.25438889319306
STARLINK-1446,45663,53.0253,4.99e-05,15.43054116,436.7615944231702,437.4417552429195,1 45663U 20035G   26072.04976701  .00021399  00000+0  48510-3 0  9999,2 45663  53.0253 343.4162 0000499 314.2049  45.8915 15.43054116320199
STARLINK-1448,45665,53.0504,0.0008036,15.53169695,402.02540380001756,412.93124474919114,1 45665U 20035J   26072.51283324  .00059927  00000+0  93781-3 0  9993,2 45665  53.0504  34.3139 0008036  92.2511 267.9418 15.53169695319511
STARLINK-1451,45668,53.0528,0.0001849,15.10295724,534.0191034211421,536.5756914613157,1 45668U 20035M   26072.32066856  .00029673  00000+0  18012-2 0  9992,2 45668  53.0528  49.6663 0001849  47.2871 312.8275 15.10295724319297
STARLINK-1452,45669,53.0323,0.0007298,15.45690517,424.38177605536293,434.3179839053828,1 45669U 20035N   26072.17286115  .00087018  00000+0  17615-2 0  9993,2 45669  53.0323   5.1295 0007298  73.1875 286.9931 15.45690517319900
STARLINK-1453,45670,53.0486,0.0006268,15.53379942,402.61319053725856,411.11887033621497,1 45670U 20035P   26072.18165848  .00114498  00000+0  17603-2 0  9995,2 45670  53.0486 356.4967 0006268  66.8722 293.2948 15.53379942319911
STARLINK-1454,45671,53.0511,0.0008352,15.51897026,405.51717386900236,416.8580617105581,1 45671U 20035Q   26072.29425924  .00121257  00000+0  19632-2 0  9997,2 45671  53.0511  35.5282 0008352  75.2799 284.9135 15.51897026319472
STARLINK-1456,45673,53.0507,0.0002866,15.50386304,413.65023754482536,417.54440605808213,1 45673U 20035S   26072.29342821  .00041928  00000+0  72956-3 0  9998,2 45673  53.0507  29.0229 0002866 134.6401 225.4841 15.50386304319589
STARLINK-1457,45674,53.0476,0.0008692,15.79543703,325.90033242662685,337.5647696541555,1 45674U 20035T   26072.08528551  .00142190  00000+0  75498-3 0  9999,2 45674  53.0476   5.4152 0008692  84.0530 276.1481 15.79543703319865
STARLINK-1458,45675,53.0525,0.0006977,15.43616172,430.69337649230147,440.20105190479353,1 45675U 20035U   26072.36897378  .00044428  00000+0  97491-3 0  9999,2 45675  53.0525  38.0185 0006977  91.6953 268.4851 15.43616172319425
